0 ARIANE 42P+ DEB
1 34193U 92072Z   13285.00168560  .00001425  00000-0  21244-2 0  3592
2 34193 008.4180 212.3558 6571378 024.9420 356.0567 03.12452327128436
0 ARIANE 42P+ DEB
1 34193U 92072Z   13286.92152616  .00001389  00000-0  23143-2 0  3600
2 34193 008.4051 210.9728 6568751 027.4907 355.5683 03.12458798128492
0 ARIANE 42P+ DEB
1 34193U 92072Z   13293.64095685 -.00011452  00000-0 -16564-1 0  3612
2 34193 008.3948 207.3622 6571480 034.9106 354.4024 03.12500704128702
0 ARIANE 42P+ DEB
1 34193U 92072Z   13294.28069380  .00001830  00000-0  30405-2 0  3625
2 34193 008.4016 207.1358 6570098 035.5211 354.0417 03.12492922128727
0 ARIANE 42P+ DEB
1 34193U 92072Z   13295.24059950  .00001892  00000-0  30428-2 0  3638
2 34193 008.4040 206.4737 6570718 036.7340 353.9267 03.12497542128759
